[Satellite]
VERSION=1.1
NAME=GLOBALSTAR M049
NICKNAME=GLOBALSTAR M049
TLE1=1 25771U 99031B   15053.64425666 -.00000122  00000-0 -19887-2 0  9999
TLE2=2 25771  51.9870  92.1824 0001575 247.5379 261.5682 11.12082264698263
